STARLINK-1457
1 45674U 20035T   26090.91671296  .00275293  00000+0  10846-2 0  9992
2 45674  53.0427 270.5862 0003706 172.5869 243.6483 15.85582946  6046
